[{"OBJECT_NAME":"OPS 5712 (P\/L 160)","OBJECT_ID":"1967-053A","EPOCH":"2026-03-09T23:15:46.773504","MEAN_MOTION":14.76189959,"ECCENTRICITY":0.000418,"INCLINATION":69.9166,"RA_OF_ASC_NODE":281.2067,"ARG_OF_PERICENTER":223.4883,"MEAN_ANOMALY":136.5935,"EPHEMERIS_TYPE":0,"CLASSIFICATION_TYPE":"U","NORAD_CAT_ID":2826,"ELEMENT_SET_NO":999,"REV_AT_EPOCH":5158,"BSTAR":0.0012899504,"MEAN_MOTION_DOT":8.87e-5,"MEAN_MOTION_DDOT":0},{"OBJECT_NAME":"CINEMA-3 (KHUSAT-2)","OBJECT_ID":"2013-066L","EPOCH":"2026-03-09T18:28:25.836672","MEAN_MOTION":14.77999867,"ECCENTRICITY":0.00904452,"INCLINATION":97.8431,"RA_OF_ASC_NODE":343.5667,"ARG_OF_PERICENTER":173.534,"MEAN_ANOMALY":186.7062,"EPHEMERIS_TYPE":0,"CLASSIFICATION_TYPE":"U","NORAD_CAT_ID":39426,"ELEMENT_SET_NO":999,"REV_AT_EPOCH":65976,"BSTAR":0.00024260325,"MEAN_MOTION_DOT":1.819e-5,"MEAN_MOTION_DDOT":0}]
